CZ-2C R/B               
1 52794U 22058K   25337.31925113  .00035250  00000+0  64436-3 0  9999
2 52794  50.1901  91.5665 0046544 159.6094 200.6745 15.47789762195177
CZ-2C R/B               
1 54039U 22132E   25337.33622410  .00043236  00000+0  66188-3 0  9991
2 54039  97.2940 333.3614 0023890  87.6276 272.7713 15.53906932175370
GSLV R/B                
1 54149U 22138AN  25337.15730173  .00004065  00000+0  35779-3 0  9994
2 54149  87.3836 198.6821 0023187 137.2684 223.0356 14.96049440169498
XRISM                   
1 57800U 23137A   25336.85448533  .00006730  00000+0  39603-3 0  9994
2 57800  31.0000 189.3635 0007644 145.2605 214.8533 15.10197227123136
ACS3                    
1 59588U 24077B   25337.14660587  .00010290  00000+0  89479-2 0  9992
2 59588  97.2731 294.8914 0077542 358.3534   1.7361 13.84726166 80818
