CCSDS_OMM_VERS = 2.0
CREATION_DATE  = 
ORIGINATOR     = 

OBJECT_NAME    = CZ-2C R/B
OBJECT_ID      = 2022-058K
CENTER_NAME    = EARTH
REF_FRAME      = TEME
TIME_SYSTEM    = UTC
MEAN_ELEMENT_THEORY = SGP/SGP4

EPOCH          = 2025-12-03T07:39:43.297632
MEAN_MOTION    = 15.47789762
ECCENTRICITY   = .00465444
INCLINATION    = 50.1901
RA_OF_ASC_NODE = 91.5665
ARG_OF_PERICENTER = 159.6094
MEAN_ANOMALY   = 200.6745

EPHEMERIS_TYPE = 0
CLASSIFICATION_TYPE = U
NORAD_CAT_ID   = 52794
ELEMENT_SET_NO = 999
REV_AT_EPOCH   = 19517
BSTAR          = .64435519E-3
MEAN_MOTION_DOT = .3525E-3
MEAN_MOTION_DDOT = 0

CCSDS_OMM_VERS = 2.0
CREATION_DATE  = 
ORIGINATOR     = 

OBJECT_NAME    = CZ-2C R/B
OBJECT_ID      = 2022-132E
CENTER_NAME    = EARTH
REF_FRAME      = TEME
TIME_SYSTEM    = UTC
MEAN_ELEMENT_THEORY = SGP/SGP4

EPOCH          = 2025-12-03T08:04:09.762240
MEAN_MOTION    = 15.53906932
ECCENTRICITY   = .00238902
INCLINATION    = 97.2940
RA_OF_ASC_NODE = 333.3614
ARG_OF_PERICENTER = 87.6276
MEAN_ANOMALY   = 272.7713

EPHEMERIS_TYPE = 0
CLASSIFICATION_TYPE = U
NORAD_CAT_ID   = 54039
ELEMENT_SET_NO = 999
REV_AT_EPOCH   = 17537
BSTAR          = .66187983E-3
MEAN_MOTION_DOT = .43236E-3
MEAN_MOTION_DDOT = 0

CCSDS_OMM_VERS = 2.0
CREATION_DATE  = 
ORIGINATOR     = 

OBJECT_NAME    = GSLV R/B
OBJECT_ID      = 2022-138AN
CENTER_NAME    = EARTH
REF_FRAME      = TEME
TIME_SYSTEM    = UTC
MEAN_ELEMENT_THEORY = SGP/SGP4

EPOCH          = 2025-12-03T03:46:30.869472
MEAN_MOTION    = 14.96049440
ECCENTRICITY   = .00231871
INCLINATION    = 87.3836
RA_OF_ASC_NODE = 198.6821
ARG_OF_PERICENTER = 137.2684
MEAN_ANOMALY   = 223.0356

EPHEMERIS_TYPE = 0
CLASSIFICATION_TYPE = U
NORAD_CAT_ID   = 54149
ELEMENT_SET_NO = 999
REV_AT_EPOCH   = 16949
BSTAR          = .35778828E-3
MEAN_MOTION_DOT = .4065E-4
MEAN_MOTION_DDOT = 0

CCSDS_OMM_VERS = 2.0
CREATION_DATE  = 
ORIGINATOR     = 

OBJECT_NAME    = XRISM
OBJECT_ID      = 2023-137A
CENTER_NAME    = EARTH
REF_FRAME      = TEME
TIME_SYSTEM    = UTC
MEAN_ELEMENT_THEORY = SGP/SGP4

EPOCH          = 2025-12-02T20:30:27.532512
MEAN_MOTION    = 15.10197227
ECCENTRICITY   = .00076447
INCLINATION    = 31.0000
RA_OF_ASC_NODE = 189.3635
ARG_OF_PERICENTER = 145.2605
MEAN_ANOMALY   = 214.8533

EPHEMERIS_TYPE = 0
CLASSIFICATION_TYPE = U
NORAD_CAT_ID   = 57800
ELEMENT_SET_NO = 999
REV_AT_EPOCH   = 12313
BSTAR          = .39603388E-3
MEAN_MOTION_DOT = .673E-4
MEAN_MOTION_DDOT = 0

CCSDS_OMM_VERS = 2.0
CREATION_DATE  = 
ORIGINATOR     = 

OBJECT_NAME    = ACS3
OBJECT_ID      = 2024-077B
CENTER_NAME    = EARTH
REF_FRAME      = TEME
TIME_SYSTEM    = UTC
MEAN_ELEMENT_THEORY = SGP/SGP4

EPOCH          = 2025-12-03T03:31:06.747168
MEAN_MOTION    = 13.84726166
ECCENTRICITY   = .00775424
INCLINATION    = 97.2731
RA_OF_ASC_NODE = 294.8914
ARG_OF_PERICENTER = 358.3534
MEAN_ANOMALY   = 1.7361

EPHEMERIS_TYPE = 0
CLASSIFICATION_TYPE = U
NORAD_CAT_ID   = 59588
ELEMENT_SET_NO = 999
REV_AT_EPOCH   = 8081
BSTAR          = .89479431E-2
MEAN_MOTION_DOT = .1029E-3
MEAN_MOTION_DDOT = 0

